SL-14 R/B               
1 16792U 86046B   26058.43461494  .00000482  00000+0  52734-4 0  9993
2 16792  82.4787  89.8746 0021553 261.3481  98.5293 14.85578732124885
SL-14 R/B               
1 16882U 86055B   26058.48840844  .00000496  00000+0  54375-4 0  9996
2 16882  82.5220 136.2614 0019078  10.7612 359.7570 14.85631614117858
AJISAI (EGS)            
1 16908U 86061A   26058.68509134 -.00000104  00000+0 -43666-4 0  9997
2 16908  50.0083 124.1128 0011243 261.2657 203.7741 12.44515459466753
COSMOS 1812             
1 17295U 87003A   26058.84638837  .01008326  65427-3  84431-3 0  9990
2 17295  82.4741 206.9066 0005788 288.0914  71.9740 16.13908496142890
SL-14 R/B               
1 17567U 87024B   26058.47176054  .00000456  00000+0  49249-4 0  9998
2 17567  82.5259 102.3696 0016784 296.8423  63.1077 14.86120937 86612
COSMOS 1833             
1 17589U 87027A   26058.52499804 -.00000121  00000+0 -38877-4 0  9998
2 17589  70.9234 347.3803 0024680 228.4959 131.4045 14.13056689  8889
SL-16 R/B               
1 17590U 87027B   26058.38695250 -.00000094  00000+0 -22998-4 0  9993
2 17590  71.0027 298.2068 0003936 163.3256 196.7998 14.17167190 13889
SL-14 R/B               
1 17912U 87038B   26058.19200917  .00000453  00000+0  49682-4 0  9990
2 17912  82.5021 306.6966 0018747 194.9258 165.1408 14.85358417 77679
COSMOS 1844             
1 17973U 87041A   26058.42953008  .00000004  00000+0  27201-4 0  9998
2 17973  70.8990  55.8166 0029485  33.6269 326.6716 14.14553014  2135
SL-14 R/B               
1 18153U 87055B   26058.57492679  .00000608  00000+0  67169-4 0  9999
2 18153  82.5024 358.5613 0021923  49.9059 310.4074 14.85614645 68439
COSMOS 1867             
1 18187U 87060A   26058.45106228 -.00000035  00000+0  24612-4 0  9992
2 18187  65.0124 335.3775 0014337 278.0123  81.9334 14.31501157 18475
SL-14 R/B               
1 18749U 88001B   26058.43479296  .00000602  00000+0  66868-4 0  9996
2 18749  82.5135 205.0036 0016596 272.5608  87.3708 14.85512754 40502
