CCSDS_OMM_VERS = 2.0
CREATION_DATE  = 
ORIGINATOR     = 

OBJECT_NAME    = SL-14 R/B
OBJECT_ID      = 1986-046B
CENTER_NAME    = EARTH
REF_FRAME      = TEME
TIME_SYSTEM    = UTC
MEAN_ELEMENT_THEORY = SGP/SGP4

EPOCH          = 2026-02-27T10:25:50.730816
MEAN_MOTION    = 14.85578732
ECCENTRICITY   = .0021553
INCLINATION    = 82.4787
RA_OF_ASC_NODE = 89.8746
ARG_OF_PERICENTER = 261.3481
MEAN_ANOMALY   = 98.5293

EPHEMERIS_TYPE = 0
CLASSIFICATION_TYPE = U
NORAD_CAT_ID   = 16792
ELEMENT_SET_NO = 999
REV_AT_EPOCH   = 12488
BSTAR          = .52734E-4
MEAN_MOTION_DOT = .482E-5
MEAN_MOTION_DDOT = 0

CCSDS_OMM_VERS = 2.0
CREATION_DATE  = 
ORIGINATOR     = 

OBJECT_NAME    = SL-14 R/B
OBJECT_ID      = 1986-055B
CENTER_NAME    = EARTH
REF_FRAME      = TEME
TIME_SYSTEM    = UTC
MEAN_ELEMENT_THEORY = SGP/SGP4

EPOCH          = 2026-02-27T11:43:18.489216
MEAN_MOTION    = 14.85631614
ECCENTRICITY   = .0019078
INCLINATION    = 82.5220
RA_OF_ASC_NODE = 136.2614
ARG_OF_PERICENTER = 10.7612
MEAN_ANOMALY   = 359.7570

EPHEMERIS_TYPE = 0
CLASSIFICATION_TYPE = U
NORAD_CAT_ID   = 16882
ELEMENT_SET_NO = 999
REV_AT_EPOCH   = 11785
BSTAR          = .54375E-4
MEAN_MOTION_DOT = .496E-5
MEAN_MOTION_DDOT = 0

CCSDS_OMM_VERS = 2.0
CREATION_DATE  = 
ORIGINATOR     = 

OBJECT_NAME    = AJISAI (EGS)
OBJECT_ID      = 1986-061A
CENTER_NAME    = EARTH
REF_FRAME      = TEME
TIME_SYSTEM    = UTC
MEAN_ELEMENT_THEORY = SGP/SGP4

EPOCH          = 2026-02-27T16:26:31.891776
MEAN_MOTION    = 12.44515459
ECCENTRICITY   = .0011243
INCLINATION    = 50.0083
RA_OF_ASC_NODE = 124.1128
ARG_OF_PERICENTER = 261.2657
MEAN_ANOMALY   = 203.7741

EPHEMERIS_TYPE = 0
CLASSIFICATION_TYPE = U
NORAD_CAT_ID   = 16908
ELEMENT_SET_NO = 999
REV_AT_EPOCH   = 46675
BSTAR          = -.43666E-4
MEAN_MOTION_DOT = -.104E-5
MEAN_MOTION_DDOT = 0

CCSDS_OMM_VERS = 2.0
CREATION_DATE  = 
ORIGINATOR     = 

OBJECT_NAME    = COSMOS 1812
OBJECT_ID      = 1987-003A
CENTER_NAME    = EARTH
REF_FRAME      = TEME
TIME_SYSTEM    = UTC
MEAN_ELEMENT_THEORY = SGP/SGP4

EPOCH          = 2026-02-27T20:18:47.955168
MEAN_MOTION    = 16.13908496
ECCENTRICITY   = .0005788
INCLINATION    = 82.4741
RA_OF_ASC_NODE = 206.9066
ARG_OF_PERICENTER = 288.0914
MEAN_ANOMALY   = 71.9740

EPHEMERIS_TYPE = 0
CLASSIFICATION_TYPE = U
NORAD_CAT_ID   = 17295
ELEMENT_SET_NO = 999
REV_AT_EPOCH   = 14289
BSTAR          = .84431E-3
MEAN_MOTION_DOT = .1008326E-1
MEAN_MOTION_DDOT = .65427E-3

CCSDS_OMM_VERS = 2.0
CREATION_DATE  = 
ORIGINATOR     = 

OBJECT_NAME    = SL-14 R/B
OBJECT_ID      = 1987-024B
CENTER_NAME    = EARTH
REF_FRAME      = TEME
TIME_SYSTEM    = UTC
MEAN_ELEMENT_THEORY = SGP/SGP4

EPOCH          = 2026-02-27T11:19:20.110656
MEAN_MOTION    = 14.86120937
ECCENTRICITY   = .0016784
INCLINATION    = 82.5259
RA_OF_ASC_NODE = 102.3696
ARG_OF_PERICENTER = 296.8423
MEAN_ANOMALY   = 63.1077

EPHEMERIS_TYPE = 0
CLASSIFICATION_TYPE = U
NORAD_CAT_ID   = 17567
ELEMENT_SET_NO = 999
REV_AT_EPOCH   = 8661
BSTAR          = .49249E-4
MEAN_MOTION_DOT = .456E-5
MEAN_MOTION_DDOT = 0

CCSDS_OMM_VERS = 2.0
CREATION_DATE  = 
ORIGINATOR     = 

OBJECT_NAME    = COSMOS 1833
OBJECT_ID      = 1987-027A
CENTER_NAME    = EARTH
REF_FRAME      = TEME
TIME_SYSTEM    = UTC
MEAN_ELEMENT_THEORY = SGP/SGP4

EPOCH          = 2026-02-27T12:35:59.830656
MEAN_MOTION    = 14.13056689
ECCENTRICITY   = .002468
INCLINATION    = 70.9234
RA_OF_ASC_NODE = 347.3803
ARG_OF_PERICENTER = 228.4959
MEAN_ANOMALY   = 131.4045

EPHEMERIS_TYPE = 0
CLASSIFICATION_TYPE = U
NORAD_CAT_ID   = 17589
ELEMENT_SET_NO = 999
REV_AT_EPOCH   = 888
BSTAR          = -.38877E-4
MEAN_MOTION_DOT = -.121E-5
MEAN_MOTION_DDOT = 0

CCSDS_OMM_VERS = 2.0
CREATION_DATE  = 
ORIGINATOR     = 

OBJECT_NAME    = SL-16 R/B
OBJECT_ID      = 1987-027B
CENTER_NAME    = EARTH
REF_FRAME      = TEME
TIME_SYSTEM    = UTC
MEAN_ELEMENT_THEORY = SGP/SGP4

EPOCH          = 2026-02-27T09:17:12.696000
MEAN_MOTION    = 14.17167190
ECCENTRICITY   = .0003936
INCLINATION    = 71.0027
RA_OF_ASC_NODE = 298.2068
ARG_OF_PERICENTER = 163.3256
MEAN_ANOMALY   = 196.7998

EPHEMERIS_TYPE = 0
CLASSIFICATION_TYPE = U
NORAD_CAT_ID   = 17590
ELEMENT_SET_NO = 999
REV_AT_EPOCH   = 1388
BSTAR          = -.22998E-4
MEAN_MOTION_DOT = -.94E-6
MEAN_MOTION_DDOT = 0

CCSDS_OMM_VERS = 2.0
CREATION_DATE  = 
ORIGINATOR     = 

OBJECT_NAME    = SL-14 R/B
OBJECT_ID      = 1987-038B
CENTER_NAME    = EARTH
REF_FRAME      = TEME
TIME_SYSTEM    = UTC
MEAN_ELEMENT_THEORY = SGP/SGP4

EPOCH          = 2026-02-27T04:36:29.592288
MEAN_MOTION    = 14.85358417
ECCENTRICITY   = .0018747
INCLINATION    = 82.5021
RA_OF_ASC_NODE = 306.6966
ARG_OF_PERICENTER = 194.9258
MEAN_ANOMALY   = 165.1408

EPHEMERIS_TYPE = 0
CLASSIFICATION_TYPE = U
NORAD_CAT_ID   = 17912
ELEMENT_SET_NO = 999
REV_AT_EPOCH   = 7767
BSTAR          = .49682E-4
MEAN_MOTION_DOT = .453E-5
MEAN_MOTION_DDOT = 0

CCSDS_OMM_VERS = 2.0
CREATION_DATE  = 
ORIGINATOR     = 

OBJECT_NAME    = COSMOS 1844
OBJECT_ID      = 1987-041A
CENTER_NAME    = EARTH
REF_FRAME      = TEME
TIME_SYSTEM    = UTC
MEAN_ELEMENT_THEORY = SGP/SGP4

EPOCH          = 2026-02-27T10:18:31.398912
MEAN_MOTION    = 14.14553014
ECCENTRICITY   = .0029485
INCLINATION    = 70.8990
RA_OF_ASC_NODE = 55.8166
ARG_OF_PERICENTER = 33.6269
MEAN_ANOMALY   = 326.6716

EPHEMERIS_TYPE = 0
CLASSIFICATION_TYPE = U
NORAD_CAT_ID   = 17973
ELEMENT_SET_NO = 999
REV_AT_EPOCH   = 213
BSTAR          = .27201E-4
MEAN_MOTION_DOT = .4E-7
MEAN_MOTION_DDOT = 0

CCSDS_OMM_VERS = 2.0
CREATION_DATE  = 
ORIGINATOR     = 

OBJECT_NAME    = SL-14 R/B
OBJECT_ID      = 1987-055B
CENTER_NAME    = EARTH
REF_FRAME      = TEME
TIME_SYSTEM    = UTC
MEAN_ELEMENT_THEORY = SGP/SGP4

EPOCH          = 2026-02-27T13:47:53.674656
MEAN_MOTION    = 14.85614645
ECCENTRICITY   = .0021923
INCLINATION    = 82.5024
RA_OF_ASC_NODE = 358.5613
ARG_OF_PERICENTER = 49.9059
MEAN_ANOMALY   = 310.4074

EPHEMERIS_TYPE = 0
CLASSIFICATION_TYPE = U
NORAD_CAT_ID   = 18153
ELEMENT_SET_NO = 999
REV_AT_EPOCH   = 6843
BSTAR          = .67169E-4
MEAN_MOTION_DOT = .608E-5
MEAN_MOTION_DDOT = 0

CCSDS_OMM_VERS = 2.0
CREATION_DATE  = 
ORIGINATOR     = 

OBJECT_NAME    = COSMOS 1867
OBJECT_ID      = 1987-060A
CENTER_NAME    = EARTH
REF_FRAME      = TEME
TIME_SYSTEM    = UTC
MEAN_ELEMENT_THEORY = SGP/SGP4

EPOCH          = 2026-02-27T10:49:31.780992
MEAN_MOTION    = 14.31501157
ECCENTRICITY   = .0014337
INCLINATION    = 65.0124
RA_OF_ASC_NODE = 335.3775
ARG_OF_PERICENTER = 278.0123
MEAN_ANOMALY   = 81.9334

EPHEMERIS_TYPE = 0
CLASSIFICATION_TYPE = U
NORAD_CAT_ID   = 18187
ELEMENT_SET_NO = 999
REV_AT_EPOCH   = 1847
BSTAR          = .24612E-4
MEAN_MOTION_DOT = -.35E-6
MEAN_MOTION_DDOT = 0

CCSDS_OMM_VERS = 2.0
CREATION_DATE  = 
ORIGINATOR     = 

OBJECT_NAME    = SL-14 R/B
OBJECT_ID      = 1988-001B
CENTER_NAME    = EARTH
REF_FRAME      = TEME
TIME_SYSTEM    = UTC
MEAN_ELEMENT_THEORY = SGP/SGP4

EPOCH          = 2026-02-27T10:26:06.111744
MEAN_MOTION    = 14.85512754
ECCENTRICITY   = .0016596
INCLINATION    = 82.5135
RA_OF_ASC_NODE = 205.0036
ARG_OF_PERICENTER = 272.5608
MEAN_ANOMALY   = 87.3708

EPHEMERIS_TYPE = 0
CLASSIFICATION_TYPE = U
NORAD_CAT_ID   = 18749
ELEMENT_SET_NO = 999
REV_AT_EPOCH   = 4050
BSTAR          = .66868E-4
MEAN_MOTION_DOT = .602E-5
MEAN_MOTION_DDOT = 0

